GLOBALSTAR M084 [+]     
1 38040U 11080A   24028.48522821 -.00000103  00000+0  38908-5 0  9990
2 38040  52.0003 148.0149 0000899  86.0819 351.7886 12.62270409559080
GLOBALSTAR M080 [+]     
1 38041U 11080B   24028.28665959 -.00000103  00000+0  40819-5 0  9993
2 38041  52.0053 150.0491 0000791  77.2700 297.3565 12.62268577559049
GLOBALSTAR M082 [+]     
1 38042U 11080C   24027.69972795 -.00000073  00000+0  17298-3 0  9996
2 38042  52.0076 107.2284 0001198 138.5977  28.3419 12.62265399559531
GLOBALSTAR M092 [+]     
1 38043U 11080D   24028.43277510 -.00000106  00000+0 -15120-4 0  9994
2 38043  52.0060 195.3490 0001201  86.4921 291.0248 12.62276057558291
GLOBALSTAR M090 [+]     
1 38044U 11080E   24027.93757622 -.00000073  00000+0  17445-3 0  9999
2 38044  51.9885 100.9637 0000880 138.4073 270.7182 12.62265577559723
GLOBALSTAR M086 [+]     
1 38045U 11080F   24027.59063625 -.00000074  00000+0  16807-3 0  9997
2 38045  51.9896 102.5332 0000471 234.0236 277.0036 12.62266705559683
GLOBALSTAR M097 [+]     
1 39072U 13005A   24028.37543007 -.00000098  00000+0  31725-4 0  9994
2 39072  52.0073  14.1743 0000144 147.9602 212.1274 12.62260238507012
GLOBALSTAR M093 [+]     
1 39073U 13005B   24028.34893043 -.00000094  00000+0  57053-4 0  9998
2 39073  51.9838   8.3678 0000163 184.9691 175.1174 12.62260296507002
